NORAD_CAT_ID,OBJECT_NAME,OBJECT_TYPE,EPOCH,MEAN_MOTION,ECCENTRICITY,INCLINATION,RA_OF_ASC_NODE,ARG_OF_PERICENTER,MEAN_ANOMALY,BSTAR,MEAN_MOTION_DOT,MEAN_MOTION_DDOT,TLE_LINE0,TLE_LINE1,TLE_LINE2,SEMIMAJOR_AXIS,PERIOD,APOGEE,PERIGEE,DECAYED
54783.0,STARLINK-5439,PAYLOAD,2023-12-25 13:37:14,15.08845767,0.0001892,53.2185,43.4395,119.0506,241.0676,0.00010776,1.428e-05,0.0,0 STARLINK-5439,1 54783U 22175AB  23359.56752912  .00001428  00000-0  10776-3 0  9992,2 54783  53.2185  43.4395 0001892 119.0506 241.0676 15.08845767 58586,6917.863,95.437,541.037,538.419,0.0
54783.0,STARLINK-5439,PAYLOAD,2023-12-26 02:20:20,15.0883374,0.0001659,53.2176,41.0632,65.1847,294.9317,-4.895e-05,-1.067e-05,0.0,0 STARLINK-5439,1 54783U 22175AB  23360.09746366 -.00001067  00000-0 -48950-4 0  9995,2 54783  53.2176  41.0632 0001659  65.1847 294.9317 15.08833740 56501,6917.9,95.438,540.912,538.617,0.0
54783.0,STARLINK-5439,PAYLOAD,2023-12-26 10:17:16,15.08836272,0.0001739,53.2177,39.5766,63.2047,296.9122,-2.6988e-05,-7.18e-06,0.0,0 STARLINK-5439,1 54783U 22175AB  23360.42866289 -.00000718  00000-0 -26988-4 0  9998,2 54783  53.2177  39.5766 0001739  63.2047 296.9122 15.08836272 58716,6917.892,95.438,540.96,538.554,0.0
54783.0,STARLINK-5439,PAYLOAD,2023-12-26 23:00:21,15.08837347,0.0001559,53.2182,37.1978,82.0323,278.0846,6.0429e-05,6.74e-06,0.0,0 STARLINK-5439,1 54783U 22175AB  23360.95857896  .00000674  00000-0  60429-4 0  9997,2 54783  53.2182  37.1978 0001559  82.0323 278.0846 15.08837347 56634,6917.888,95.438,540.832,538.675,0.0
54783.0,STARLINK-5439,PAYLOAD,2023-12-27 11:43:25,15.08859292,0.0001922,53.218,34.8174,101.8419,258.2789,-2.36e-06,-3.26e-06,0.0,0 STARLINK-5439,1 54783U 22175AB  23361.48848614 -.00000326  00000-0 -23600-5 0  9991,2 54783  53.2180  34.8174 0001922 101.8419 258.2789 15.08859292 56712,6917.821,95.436,541.016,538.357,0.0
54783.0,STARLINK-5439,PAYLOAD,2023-12-28 02:01:54,15.08834777,0.0001843,53.2177,32.1422,76.2199,283.8999,0.00013718,1.895e-05,0.0,0 STARLINK-5439,1 54783U 22175AB  23362.08466209  .00001895  00000-0  13718-3 0  9991,2 54783  53.2177  32.1422 0001843  76.2199 283.8999 15.08834777 56805,6917.896,95.438,541.036,538.486,0.0
54783.0,STARLINK-5439,PAYLOAD,2023-12-28 08:23:27,15.08837843,0.0001845,53.218,30.9524,88.9129,271.2075,0.00015748,2.219e-05,0.0,0 STARLINK-5439,1 54783U 22175AB  23362.34962073  .00002219  00000-0  15748-3 0  9996,2 54783  53.2180  30.9524 0001845  88.9129 271.2075 15.08837843 59001,6917.887,95.438,541.028,538.476,0.0
54783.0,STARLINK-5439,PAYLOAD,2023-12-29 08:14:11,15.08883673,0.0001819,53.2184,26.4939,109.3799,250.739,0.00044435,6.799e-05,0.0,0 STARLINK-5439,1 54783U 22175AB  23363.34318755  .00006799  00000-0  44435-3 0  9991,2 54783  53.2184  26.4939 0001819 109.3799 250.7390 15.08883673 56996,6917.747,95.435,540.87,538.354,0.0
54783.0,STARLINK-5439,PAYLOAD,2023-12-30 11:15:47,15.08834914,0.0001366,53.219,21.4382,86.5499,273.565,1.9709e-05,2.6e-07,0.0,0 STARLINK-5439,1 54783U 22175AB  23364.46930102  .00000026  00000-0  19709-4 0  9995,2 54783  53.2190  21.4382 0001366  86.5499 273.5650 15.08834914 57166,6917.896,95.438,540.706,538.816,0.0
54783.0,STARLINK-5439,PAYLOAD,2023-12-30 12:51:10,15.08832149,0.0001428,53.2186,21.1398,99.9105,260.2049,-2.1418e-05,-6.29e-06,0.0,0 STARLINK-5439,1 54783U 22175AB  23364.53554318 -.00000629  00000-0 -21418-4 0  9995,2 54783  53.2186  21.1398 0001428  99.9105 260.2049 15.08832149 59330,6917.904,95.438,540.757,538.782,0.0
54783.0,STARLINK-5439,PAYLOAD,2023-12-31 07:55:48,15.0885523,0.0001546,53.2191,17.5718,114.1,246.0154,-0.00030201,-5.093e-05,0.0,0 STARLINK-5439,1 54783U 22175AB  23365.33042050 -.00005093  00000-0 -30201-3 0  9998,2 54783  53.2191  17.5718 0001546 114.1000 246.0154 15.08855230 57294,6917.834,95.437,540.768,538.629,0.0
54783.0,STARLINK-5439,PAYLOAD,2024-01-01 07:46:35,15.08838431,0.0001468,53.2192,13.1118,87.4022,272.7138,0.00020336,2.95e-05,0.0,0 STARLINK-5439,1 54783U 22175AB  24001.32401994  .00002950  00000-0  20336-3 0  9996,2 54783  53.2192  13.1118 0001468  87.4022 272.7138 15.08838431 57449,6917.885,95.438,540.766,538.735,0.0
54783.0,STARLINK-5439,PAYLOAD,2024-01-02 04:26:36,15.0883411,0.0001585,53.2194,9.2433,91.8554,268.262,9.4515e-05,1.216e-05,0.0,0 STARLINK-5439,1 54783U 22175AB  24002.18514956  .00001216  00000-0  94515-4 0  9999,2 54783  53.2194   9.2433 0001585  91.8554 268.2620 15.08834110 57576,6917.898,95.438,540.86,538.667,0.0
54783.0,STARLINK-5439,PAYLOAD,2024-01-02 07:37:23,15.08837088,0.0001598,53.2198,8.6492,94.2565,265.861,0.0001121,1.496e-05,0.0,0 STARLINK-5439,1 54783U 22175AB  24002.31762809  .00001496  00000-0  11210-3 0  9996,2 54783  53.2198   8.6492 0001598  94.2565 265.8610 15.08837088 59752,6917.889,95.438,540.86,538.649,0.0
54783.0,STARLINK-5439,PAYLOAD,2024-01-03 09:03:32,15.08844807,0.0001698,53.2199,3.891,93.5458,266.5728,5.314e-05,5.58e-06,0.0,0 STARLINK-5439,1 54783U 22175AB  24003.37746520  .00000558  00000-0  53140-4 0  9992,2 54783  53.2199   3.8910 0001698  93.5458 266.5728 15.08844807 57752,6917.866,95.437,540.905,538.556,0.0
54783.0,STARLINK-5439,PAYLOAD,2024-01-04 04:08:11,15.08835182,0.0001637,53.2198,0.3244,75.9532,284.1642,2.2688e-05,7.3e-07,0.0,0 STARLINK-5439,1 54783U 22175AB  24004.17235456  .00000073  00000-0  22688-4 0  9997,2 54783  53.2198   0.3244 0001637  75.9532 284.1642 15.08835182 57873,6917.895,95.438,540.893,538.628,0.0
54783.0,STARLINK-5439,PAYLOAD,2024-01-04 05:43:34,15.08835705,0.0001658,53.2197,0.0272,75.2375,284.8801,2.5766e-05,1.22e-06,0.0,0 STARLINK-5439,1 54783U 22175AB  24004.23859419  .00000122  00000-0  25766-4 0  9990,2 54783  53.2197   0.0272 0001658  75.2375 284.8801 15.08835705 60049,6917.894,95.438,540.906,538.612,0.0
54783.0,STARLINK-5439,PAYLOAD,2024-01-05 03:58:57,15.08844052,0.0001673,53.2198,355.8633,78.4294,281.6886,8.0066e-05,9.87e-06,0.0,0 STARLINK-5439,1 54783U 22175AB  24005.16594720  .00000987  00000-0  80066-4 0  9997,2 54783  53.2198 355.8633 0001673  78.4294 281.6886 15.08844052 58022,6917.868,95.437,540.89,538.576,0.0
54783.0,STARLINK-5439,PAYLOAD,2024-01-05 05:34:20,15.08850023,0.0001554,53.2195,355.5649,83.7711,276.3458,4.7599e-05,4.7e-06,0.0,0 STARLINK-5439,1 54783U 22175AB  24005.23218434  .00000470  00000-0  47599-4 0  9991,2 54783  53.2195 355.5649 0001554  83.7711 276.3458 15.08850023 60196,6917.85,95.437,540.79,538.64,0.0
54783.0,STARLINK-5439,PAYLOAD,2024-01-06 08:35:53,15.08846767,0.0001471,53.219,350.5073,86.5456,273.5705,9.3689e-05,1.204e-05,0.0,0 STARLINK-5439,1 54783U 22175AB  24006.35826286  .00001204  00000-0  93689-4 0  9992,2 54783  53.2190 350.5073 0001471  86.5456 273.5705 15.08846767 58205,6917.86,95.437,540.742,538.707,0.0
54783.0,STARLINK-5439,PAYLOAD,2024-01-07 03:40:32,15.08837535,0.0001549,53.2187,346.9412,107.4842,252.6319,-8.8529e-06,-4.29e-06,0.0,0 STARLINK-5439,1 54783U 22175AB  24007.15315103 -.00000429  00000-0 -88529-5 0  9990,2 54783  53.2187 346.9412 0001549 107.4842 252.6319 15.08837535 58320,6917.888,95.438,540.825,538.681,0.0
54783.0,STARLINK-5439,PAYLOAD,2024-01-07 22:45:09,15.08845173,0.0001582,53.2187,343.3721,114.5353,245.5804,-4.3047e-05,-9.73e-06,0.0,0 STARLINK-5439,1 54783U 22175AB  24007.94802908 -.00000973  00000-0 -43047-4 0  9990,2 54783  53.2187 343.3721 0001582 114.5353 245.5804 15.08845173 60608,6917.865,95.437,540.824,538.635,0.0
54783.0,STARLINK-5439,PAYLOAD,2024-01-08 05:06:41,15.08847626,0.0001405,53.2187,342.1838,95.0762,265.039,8.6119e-05,1.083e-05,0.0,0 STARLINK-5439,1 54783U 22175AB  24008.21298436  .00001083  00000-0  86119-4 0  9994,2 54783  53.2187 342.1838 0001405  95.0762 265.0390 15.08847626 58480,6917.857,95.437,540.694,538.75,0.0
54783.0,STARLINK-5439,PAYLOAD,2024-01-09 03:22:06,15.08835422,0.0001504,53.2187,338.0153,89.5239,270.5925,7.3311e-05,8.79e-06,0.0,0 STARLINK-5439,1 54783U 22175AB  24009.14035525  .00000879  00000-0  73311-4 0  9997,2 54783  53.2187 338.0153 0001504  89.5239 270.5925 15.08835422 58623,6917.894,95.438,540.8,538.719,0.0
54783.0,STARLINK-5439,PAYLOAD,2024-01-09 20:51:21,15.08853496,0.0001362,53.2183,334.7474,92.6273,267.4875,-0.0001583,-2.807e-05,0.0,0 STARLINK-5439,1 54783U 22175AB  24009.86899423 -.00002807  00000-0 -15830-3 0  9997,2 54783  53.2183 334.7474 0001362  92.6273 267.4875 15.08853496 60895,6917.839,95.437,540.646,538.762,0.0
54783.0,STARLINK-5439,PAYLOAD,2024-01-10 03:12:53,15.08849966,0.0001407,53.2185,333.5608,89.9596,270.1557,0.00010727,1.42e-05,0.0,0 STARLINK-5439,1 54783U 22175AB  24010.13394805  .00001420  00000-0  10727-3 0  9991,2 54783  53.2185 333.5608 0001407  89.9596 270.1557 15.08849966 58779,6917.85,95.437,540.688,538.742,0.0
54783.0,STARLINK-5439,PAYLOAD,2024-01-11 01:28:17,15.08840949,0.0001285,53.2178,329.3981,89.7081,270.4058,0.00011826,1.595e-05,0.0,0 STARLINK-5439,1 54783U 22175AB  24011.06131313  .00001595  00000-0  11826-3 0  9991,2 54783  53.2178 329.3981 0001285  89.7081 270.4058 15.08840949 58916,6917.877,95.437,540.631,538.854,0.0
54783.0,STARLINK-5439,PAYLOAD,2024-01-11 06:14:26,15.0884556,0.000138,53.2175,328.5059,88.1625,271.9525,0.00017392,2.481e-05,0.0,0 STARLINK-5439,1 54783U 22175AB  24011.26003108  .00002481  00000-0  17392-3 0  9992,2 54783  53.2175 328.5059 0001380  88.1625 271.9525 15.08845560 61107,6917.863,95.437,540.683,538.774,0.0
54783.0,STARLINK-5439,PAYLOAD,2024-01-12 02:54:27,15.08844605,0.0001357,53.2175,324.6388,100.0022,260.1123,7.4329e-05,8.95e-06,0.0,0 STARLINK-5439,1 54783U 22175AB  24012.12115254  .00000895  00000-0  74329-4 0  9995,2 54783  53.2175 324.6388 0001357 100.0022 260.1123 15.08844605 59074,6917.866,95.437,540.67,538.793,0.0
54783.0,STARLINK-5439,PAYLOAD,2024-01-13 02:45:15,15.08843978,0.000107,53.216,320.1891,92.5898,267.5216,0.00021408,3.121e-05,0.0,0 STARLINK-5439,1 54783U 22175AB  24013.11475740  .00003121  00000-0  21408-3 0  9998,2 54783  53.2160 320.1891 0001070  92.5898 267.5216 15.08843978 59229,6917.868,95.437,540.473,538.993,0.0
